FENGYUN 1C DEB          
1 30652U 99025APJ 17345.96008821 -.00000054  00000-0 -51118-5 0  9997
2 30652  99.1238 359.2266 0008694 160.4528 259.6944 14.07009926555862
